[{"OBJECT_NAME":"TOMORROW-S2","OBJECT_ID":"2024-149T","EPOCH":"2026-03-09T18:02:42.746496","MEAN_MOTION":15.30674935,"ECCENTRICITY":0.0001648,"INCLINATION":97.3857,"RA_OF_ASC_NODE":150.0385,"ARG_OF_PERICENTER":234.3331,"MEAN_ANOMALY":125.7757,"EPHEMERIS_TYPE":0,"CLASSIFICATION_TYPE":"U","NORAD_CAT_ID":60485,"ELEMENT_SET_NO":999,"REV_AT_EPOCH":8686,"BSTAR":0.00027683033,"MEAN_MOTION_DOT":8.133e-5,"MEAN_MOTION_DDOT":0},{"OBJECT_NAME":"STARLINK-35519","OBJECT_ID":"2025-225K","EPOCH":"2026-03-09T13:27:35.445024","MEAN_MOTION":15.30182599,"ECCENTRICITY":0.0001012,"INCLINATION":53.1573,"RA_OF_ASC_NODE":165.9062,"ARG_OF_PERICENTER":85.3609,"MEAN_ANOMALY":274.7507,"EPHEMERIS_TYPE":0,"CLASSIFICATION_TYPE":"U","NORAD_CAT_ID":65919,"ELEMENT_SET_NO":999,"REV_AT_EPOCH":2439,"BSTAR":0.00075334,"MEAN_MOTION_DOT":0.00022007,"MEAN_MOTION_DDOT":0}]
